CCSDS_OMM_VERS = 2.0
CREATION_DATE  = 
ORIGINATOR     = 

OBJECT_NAME    = DELTA 2 R/B(1)
OBJECT_ID      = 1990-008B
CENTER_NAME    = EARTH
REF_FRAME      = TEME
TIME_SYSTEM    = UTC
MEAN_ELEMENT_THEORY = SGP/SGP4

EPOCH          = 2026-01-16T12:53:56.130144
MEAN_MOTION    = 15.48721029
ECCENTRICITY   = .01018678
INCLINATION    = 35.6043
RA_OF_ASC_NODE = 155.2479
ARG_OF_PERICENTER = 136.2706
MEAN_ANOMALY   = 224.6150

EPHEMERIS_TYPE = 0
CLASSIFICATION_TYPE = U
NORAD_CAT_ID   = 20453
ELEMENT_SET_NO = 999
REV_AT_EPOCH   = 91802
BSTAR          = .68243008E-3
MEAN_MOTION_DOT = .46831E-3
MEAN_MOTION_DDOT = 0

CCSDS_OMM_VERS = 2.0
CREATION_DATE  = 
ORIGINATOR     = 

OBJECT_NAME    = COSMOS 2058
OBJECT_ID      = 1990-010A
CENTER_NAME    = EARTH
REF_FRAME      = TEME
TIME_SYSTEM    = UTC
MEAN_ELEMENT_THEORY = SGP/SGP4

EPOCH          = 2026-01-16T11:12:13.692096
MEAN_MOTION    = 15.10816376
ECCENTRICITY   = .00105336
INCLINATION    = 82.4684
RA_OF_ASC_NODE = 98.8694
ARG_OF_PERICENTER = 148.4739
MEAN_ANOMALY   = 211.7124

EPHEMERIS_TYPE = 0
CLASSIFICATION_TYPE = U
NORAD_CAT_ID   = 20465
ELEMENT_SET_NO = 999
REV_AT_EPOCH   = 93435
BSTAR          = .13851924E-3
MEAN_MOTION_DOT = .2332E-4
MEAN_MOTION_DDOT = 0

CCSDS_OMM_VERS = 2.0
CREATION_DATE  = 
ORIGINATOR     = 

OBJECT_NAME    = SL-14 R/B
OBJECT_ID      = 1990-010B
CENTER_NAME    = EARTH
REF_FRAME      = TEME
TIME_SYSTEM    = UTC
MEAN_ELEMENT_THEORY = SGP/SGP4

EPOCH          = 2026-01-16T13:11:44.488608
MEAN_MOTION    = 14.83510073
ECCENTRICITY   = .00213093
INCLINATION    = 82.5043
RA_OF_ASC_NODE = 316.3565
ARG_OF_PERICENTER = 109.9924
MEAN_ANOMALY   = 250.3589

EPHEMERIS_TYPE = 0
CLASSIFICATION_TYPE = U
NORAD_CAT_ID   = 20466
ELEMENT_SET_NO = 999
REV_AT_EPOCH   = 92075
BSTAR          = .37280946E-4
MEAN_MOTION_DOT = .332E-5
MEAN_MOTION_DDOT = 0

CCSDS_OMM_VERS = 2.0
CREATION_DATE  = 
ORIGINATOR     = 

OBJECT_NAME    = SL-14 R/B
OBJECT_ID      = 1990-018B
CENTER_NAME    = EARTH
REF_FRAME      = TEME
TIME_SYSTEM    = UTC
MEAN_ELEMENT_THEORY = SGP/SGP4

EPOCH          = 2026-01-16T10:47:45.346560
MEAN_MOTION    = 14.82086633
ECCENTRICITY   = .00148811
INCLINATION    = 82.5211
RA_OF_ASC_NODE = 271.9261
ARG_OF_PERICENTER = 263.8119
MEAN_ANOMALY   = 96.1400

EPHEMERIS_TYPE = 0
CLASSIFICATION_TYPE = U
NORAD_CAT_ID   = 20511
ELEMENT_SET_NO = 999
REV_AT_EPOCH   = 91484
BSTAR          = .36450493E-4
MEAN_MOTION_DOT = .313E-5
MEAN_MOTION_DDOT = 0

CCSDS_OMM_VERS = 2.0
CREATION_DATE  = 
ORIGINATOR     = 

OBJECT_NAME    = HST
OBJECT_ID      = 1990-037B
CENTER_NAME    = EARTH
REF_FRAME      = TEME
TIME_SYSTEM    = UTC
MEAN_ELEMENT_THEORY = SGP/SGP4

EPOCH          = 2026-01-16T11:12:02.884320
MEAN_MOTION    = 15.28553314
ECCENTRICITY   = .00017749
INCLINATION    = 28.4678
RA_OF_ASC_NODE = 36.0194
ARG_OF_PERICENTER = 244.4761
MEAN_ANOMALY   = 115.5651

EPHEMERIS_TYPE = 0
CLASSIFICATION_TYPE = U
NORAD_CAT_ID   = 20580
ELEMENT_SET_NO = 999
REV_AT_EPOCH   = 76531
BSTAR          = .19063096E-3
MEAN_MOTION_DOT = .5675E-4
MEAN_MOTION_DDOT = 0

CCSDS_OMM_VERS = 2.0
CREATION_DATE  = 
ORIGINATOR     = 

OBJECT_NAME    = SL-16 R/B
OBJECT_ID      = 1990-046B
CENTER_NAME    = EARTH
REF_FRAME      = TEME
TIME_SYSTEM    = UTC
MEAN_ELEMENT_THEORY = SGP/SGP4

EPOCH          = 2026-01-16T12:38:14.345088
MEAN_MOTION    = 14.15007846
ECCENTRICITY   = .00135029
INCLINATION    = 70.9996
RA_OF_ASC_NODE = 47.4644
ARG_OF_PERICENTER = 13.7785
MEAN_ANOMALY   = 346.3704

EPHEMERIS_TYPE = 0
CLASSIFICATION_TYPE = U
NORAD_CAT_ID   = 20625
ELEMENT_SET_NO = 999
REV_AT_EPOCH   = 84101
BSTAR          = .27872405E-4
MEAN_MOTION_DOT = .6E-7
MEAN_MOTION_DDOT = 0

CCSDS_OMM_VERS = 2.0
CREATION_DATE  = 
ORIGINATOR     = 

OBJECT_NAME    = COSMOS 2084
OBJECT_ID      = 1990-055A
CENTER_NAME    = EARTH
REF_FRAME      = TEME
TIME_SYSTEM    = UTC
MEAN_ELEMENT_THEORY = SGP/SGP4

EPOCH          = 2026-01-16T15:31:25.583232
MEAN_MOTION    = 15.05261130
ECCENTRICITY   = .00257947
INCLINATION    = 62.7897
RA_OF_ASC_NODE = 153.0302
ARG_OF_PERICENTER = 179.9370
MEAN_ANOMALY   = 180.1739

EPHEMERIS_TYPE = 0
CLASSIFICATION_TYPE = U
NORAD_CAT_ID   = 20663
ELEMENT_SET_NO = 999
REV_AT_EPOCH   = 92848
BSTAR          = .17125009E-3
MEAN_MOTION_DOT = .2271E-4
MEAN_MOTION_DDOT = 0

CCSDS_OMM_VERS = 2.0
CREATION_DATE  = 
ORIGINATOR     = 

OBJECT_NAME    = SL-6 R/B(2)
OBJECT_ID      = 1990-055D
CENTER_NAME    = EARTH
REF_FRAME      = TEME
TIME_SYSTEM    = UTC
MEAN_ELEMENT_THEORY = SGP/SGP4

EPOCH          = 2026-01-16T13:25:28.164000
MEAN_MOTION    = 15.03268661
ECCENTRICITY   = .0017178
INCLINATION    = 62.7823
RA_OF_ASC_NODE = 71.0868
ARG_OF_PERICENTER = 329.5115
MEAN_ANOMALY   = 30.4983

EPHEMERIS_TYPE = 0
CLASSIFICATION_TYPE = U
NORAD_CAT_ID   = 20666
ELEMENT_SET_NO = 999
REV_AT_EPOCH   = 93035
BSTAR          = .11038633E-3
MEAN_MOTION_DOT = .1307E-4
MEAN_MOTION_DDOT = 0

CCSDS_OMM_VERS = 2.0
CREATION_DATE  = 
ORIGINATOR     = 

OBJECT_NAME    = SL-8 R/B
OBJECT_ID      = 1990-078B
CENTER_NAME    = EARTH
REF_FRAME      = TEME
TIME_SYSTEM    = UTC
MEAN_ELEMENT_THEORY = SGP/SGP4

EPOCH          = 2026-01-16T06:18:05.191776
MEAN_MOTION    = 14.87110633
ECCENTRICITY   = .03688396
INCLINATION    = 82.9065
RA_OF_ASC_NODE = 298.3842
ARG_OF_PERICENTER = 189.6813
MEAN_ANOMALY   = 169.7171

EPHEMERIS_TYPE = 0
CLASSIFICATION_TYPE = U
NORAD_CAT_ID   = 20775
ELEMENT_SET_NO = 999
REV_AT_EPOCH   = 80150
BSTAR          = .35717583E-3
MEAN_MOTION_DOT = .11815E-3
MEAN_MOTION_DDOT = 0

CCSDS_OMM_VERS = 2.0
CREATION_DATE  = 
ORIGINATOR     = 

OBJECT_NAME    = SL-8 R/B
OBJECT_ID      = 1991-006B
CENTER_NAME    = EARTH
REF_FRAME      = TEME
TIME_SYSTEM    = UTC
MEAN_ELEMENT_THEORY = SGP/SGP4

EPOCH          = 2026-01-16T13:00:58.414464
MEAN_MOTION    = 13.77492111
ECCENTRICITY   = .00224549
INCLINATION    = 82.9407
RA_OF_ASC_NODE = 208.8238
ARG_OF_PERICENTER = 178.3437
MEAN_ANOMALY   = 235.5216

EPHEMERIS_TYPE = 0
CLASSIFICATION_TYPE = U
NORAD_CAT_ID   = 21088
ELEMENT_SET_NO = 999
REV_AT_EPOCH   = 75689
BSTAR          = -.31768474E-4
MEAN_MOTION_DOT = -.16E-6
MEAN_MOTION_DDOT = 0

CCSDS_OMM_VERS = 2.0
CREATION_DATE  = 
ORIGINATOR     = 

OBJECT_NAME    = OKEAN-3
OBJECT_ID      = 1991-039A
CENTER_NAME    = EARTH
REF_FRAME      = TEME
TIME_SYSTEM    = UTC
MEAN_ELEMENT_THEORY = SGP/SGP4

EPOCH          = 2026-01-16T12:56:10.038048
MEAN_MOTION    = 15.04352841
ECCENTRICITY   = .00156841
INCLINATION    = 82.5151
RA_OF_ASC_NODE = 27.3527
ARG_OF_PERICENTER = 142.2438
MEAN_ANOMALY   = 217.9892

EPHEMERIS_TYPE = 0
CLASSIFICATION_TYPE = U
NORAD_CAT_ID   = 21397
ELEMENT_SET_NO = 999
REV_AT_EPOCH   = 85719
BSTAR          = .11661083E-3
MEAN_MOTION_DOT = .1658E-4
MEAN_MOTION_DDOT = 0

CCSDS_OMM_VERS = 2.0
CREATION_DATE  = 
ORIGINATOR     = 

OBJECT_NAME    = COSMOS 2151
OBJECT_ID      = 1991-042A
CENTER_NAME    = EARTH
REF_FRAME      = TEME
TIME_SYSTEM    = UTC
MEAN_ELEMENT_THEORY = SGP/SGP4

EPOCH          = 2026-01-16T14:00:41.721408
MEAN_MOTION    = 14.99852732
ECCENTRICITY   = .00115057
INCLINATION    = 82.4984
RA_OF_ASC_NODE = 133.9236
ARG_OF_PERICENTER = 231.5570
MEAN_ANOMALY   = 128.4622

EPHEMERIS_TYPE = 0
CLASSIFICATION_TYPE = U
NORAD_CAT_ID   = 21422
ELEMENT_SET_NO = 999
REV_AT_EPOCH   = 85538
BSTAR          = .12046018E-3
MEAN_MOTION_DOT = .152E-4
MEAN_MOTION_DDOT = 0

