DELTA 2 R/B(1)          
1 20453U 90008B   26016.53745521  .00046831  00000+0  68243-3 0  9995
2 20453  35.6043 155.2479 0101867 136.2706 224.6150 15.48721029918027
COSMOS 2058             
1 20465U 90010A   26016.46682514  .00002332  00000+0  13852-3 0  9999
2 20465  82.4684  98.8694 0010533 148.4739 211.7124 15.10816376934353
SL-14 R/B               
1 20466U 90010B   26016.54982047  .00000332  00000+0  37281-4 0  9994
2 20466  82.5043 316.3565 0021309 109.9924 250.3589 14.83510073920757
SL-14 R/B               
1 20511U 90018B   26016.44983040  .00000313  00000+0  36450-4 0  9992
2 20511  82.5211 271.9261 0014881 263.8119  96.1400 14.82086633914847
HST                     
1 20580U 90037B   26016.46670005  .00005675  00000+0  19063-3 0  9991
2 20580  28.4678  36.0194 0001774 244.4761 115.5651 15.28553314765315
SL-16 R/B               
1 20625U 90046B   26016.52655492  .00000006  00000+0  27872-4 0  9992
2 20625  70.9996  47.4644 0013502  13.7785 346.3704 14.15007846841015
COSMOS 2084             
1 20663U 90055A   26016.64682388  .00002271  00000+0  17125-3 0  9996
2 20663  62.7897 153.0302 0025794 179.9370 180.1739 15.05261130928489
SL-6 R/B(2)             
1 20666U 90055D   26016.55935375  .00001307  00000+0  11039-3 0  9993
2 20666  62.7823  71.0868 0017178 329.5115  30.4983 15.03268661930355
SL-8 R/B                
1 20775U 90078B   26016.26256009  .00011815  00000+0  35718-3 0  9992
2 20775  82.9065 298.3842 0368839 189.6813 169.7171 14.87110633801502
SL-8 R/B                
1 21088U 91006B   26016.54234276 -.00000016  00000+0 -31768-4 0  9990
2 21088  82.9407 208.8238 0022454 178.3437 235.5216 13.77492111756897
OKEAN-3                 
1 21397U 91039A   26016.53900507  .00001658  00000+0  11661-3 0  9995
2 21397  82.5151  27.3527 0015684 142.2438 217.9892 15.04352841857191
COSMOS 2151             
1 21422U 91042A   26016.58381622  .00001520  00000+0  12046-3 0  9990
2 21422  82.4984 133.9236 0011505 231.5570 128.4622 14.99852732855384
